{"fetched_at":"2026-07-17T17:37:53.421Z","source":"https://celestrak.org/NORAD/elements/gp.php?GROUP=oneweb&FORMAT=JSON","constellation":"oneweb","records":[{"OBJECT_NAME":"ONEWEB-0136","OBJECT_ID":"2020-100AA","EPOCH":"2026-07-16T22:10:38.998272","CLASSIFICATION_TYPE":"U","MEAN_MOTION":13.12443689,"ECCENTRICITY":0.00021311,"INCLINATION":87.897,"RA_OF_ASC_NODE":344.7379,"ARG_OF_PERICENTER":102.2963,"MEAN_ANOMALY":257.8405,"EPHEMERIS_TYPE":0,"NORAD_CAT_ID":47282,"ELEMENT_SET_NO":999,"REV_AT_EPOCH":26856,"BSTAR":0.0005895642,"MEAN_MOTION_DOT":0.00000225,"MEAN_MOTION_DDOT":0},{"OBJECT_NAME":"ONEWEB-0137","OBJECT_ID":"2020-100AB","EPOCH":"2026-07-16T22:59:25.818144","CLASSIFICATION_TYPE":"U","MEAN_MOTION":13.12442562,"ECCENTRICITY":0.0001799,"INCLINATION":87.8977,"RA_OF_ASC_NODE":344.7423,"ARG_OF_PERICENTER":92.9147,"MEAN_ANOMALY":267.2188,"EPHEMERIS_TYPE":0,"NORAD_CAT_ID":47283,"ELEMENT_SET_NO":999,"REV_AT_EPOCH":26847,"BSTAR":-0.00024695253,"MEAN_MOTION_DOT":-7.6e-7,"MEAN_MOTION_DDOT":0},{"OBJECT_NAME":"ONEWEB-0138","OBJECT_ID":"2020-100AC","EPOCH":"2026-07-16T22:27:44.128224","CLASSIFICATION_TYPE":"U","MEAN_MOTION":13.12442541,"ECCENTRICITY":0.00020833,"INCLINATION":87.8972,"RA_OF_ASC_NODE":344.7513,"ARG_OF_PERICENTER":98.9044,"MEAN_ANOMALY":261.232,"EPHEMERIS_TYPE":0,"NORAD_CAT_ID":47284,"ELEMENT_SET_NO":999,"REV_AT_EPOCH":26855,"BSTAR":0.0010459884,"MEAN_MOTION_DOT":0.00000389,"MEAN_MOTION_DDOT":0},{"OBJECT_NAME":"ONEWEB-0139","OBJECT_ID":"2020-100AD","EPOCH":"2026-07-16T23:26:28.662432","CLASSIFICATION_TYPE":"U","MEAN_MOTION":13.12442814,"ECCENTRICITY":0.00019245,"INCLINATION":87.8973,"RA_OF_ASC_NODE":344.7292,"ARG_OF_PERICENTER":96.5024,"MEAN_ANOMALY":263.6324,"EPHEMERIS_TYPE":0,"NORAD_CAT_ID":47285,"ELEMENT_SET_NO":999,"REV_AT_EPOCH":26863,"BSTAR":-0.001131159,"MEAN_MOTION_DOT":-0.00000394,"MEAN_MOTION_DDOT":0},{"OBJECT_NAME":"ONEWEB-0140","OBJECT_ID":"2020-100AE","EPOCH":"2026-07-16T22:20:24.767808","CLASSIFICATION_TYPE":"U","MEAN_MOTION":13.1244341,"ECCENTRICITY":0.00017799,"INCLINATION":87.8975,"RA_OF_ASC_NODE":344.7292,"ARG_OF_PERICENTER":102.0724,"MEAN_ANOMALY":258.0604,"EPHEMERIS_TYPE":0,"NORAD_CAT_ID":47286,"ELEMENT_SET_NO":999,"REV_AT_EPOCH":26859,"BSTAR":0.0010483858,"MEAN_MOTION_DOT":0.0000039,"MEAN_MOTION_DDOT":0},{"OBJECT_NAME":"ONEWEB-0141","OBJECT_ID":"2020-100AF","EPOCH":"2026-07-16T21:36:16.755552","CLASSIFICATION_TYPE":"U","MEAN_MOTION":13.12443744,"ECCENTRICITY":0.00018531,"INCLINATION":87.8973,"RA_OF_ASC_NODE":344.7404,"ARG_OF_PERICENTER":87.4818,"MEAN_ANOMALY":272.6523,"EPHEMERIS_TYPE":0,"NORAD_CAT_ID":47287,"ELEMENT_SET_NO":999,"REV_AT_EPOCH":26857,"BSTAR":-0.0011637616,"MEAN_MOTION_DOT":-0.00000406,"MEAN_MOTION_DDOT":0},{"OBJECT_NAME":"ONEWEB-0142","OBJECT_ID":"2020-100AG","EPOCH":"2026-07-16T23:09:23.212800","CLASSIFICATION_TYPE":"U","MEAN_MOTION":13.1244387,"ECCENTRICITY":0.00021899,"INCLINATION":87.8967,"RA_OF_ASC_NODE":344.7474,"ARG_OF_PERICENTER":88.5712,"MEAN_ANOMALY":271.5668,"EPHEMERIS_TYPE":0,"NORAD_CAT_ID":47288,"ELEMENT_SET_NO":999,"REV_AT_EPOCH":26857,"BSTAR":-0.00062633783,"MEAN_MOTION_DOT":-0.00000213,"MEAN_MOTION_DDOT":0},{"OBJECT_NAME":"ONEWEB-0143","OBJECT_ID":"2020-100AH","EPOCH":"2026-07-16T21:34:02.591040","CLASSIFICATION_TYPE":"U","MEAN_MOTION":13.12443345,"ECCENTRICITY":0.00018443,"INCLINATION":87.8967,"RA_OF_ASC_NODE":344.7602,"ARG_OF_PERICENTER":95.4599,"MEAN_ANOMALY":264.674,"EPHEMERIS_TYPE":0,"NORAD_CAT_ID":47289,"ELEMENT_SET_NO":999,"REV_AT_EPOCH":26854,"BSTAR":-0.001233473,"MEAN_MOTION_DOT":-0.00000431,"MEAN_MOTION_DDOT":0},{"OBJECT_NAME":"ONEWEB-0144","OBJECT_ID":"2020-100AJ","EPOCH":"2026-07-16T22:42:22.244256","CLASSIFICATION_TYPE":"U","MEAN_MOTION":13.12441922,"ECCENTRICITY":0.00022464,"INCLINATION":87.8977,"RA_OF_ASC_NODE":344.7266,"ARG_OF_PERICENTER":97.562,"MEAN_ANOMALY":262.5764,"EPHEMERIS_TYPE":0,"NORAD_CAT_ID":47290,"ELEMENT_SET_NO":999,"REV_AT_EPOCH":26847,"BSTAR":0.00082642787,"MEAN_MOTION_DOT":0.0000031,"MEAN_MOTION_DDOT":0},{"OBJECT_NAME":"ONEWEB-0145","OBJECT_ID":"2020-100AK","EPOCH":"2026-07-16T22:00:53.331552","CLASSIFICATION_TYPE":"U","MEAN_MOTION":13.12445223,"ECCENTRICITY":0.00021191,"INCLINATION":87.8963,"RA_OF_ASC_NODE":344.7571,"ARG_OF_PERICENTER":92.8868,"MEAN_ANOMALY":267.2503,"EPHEMERIS_TYPE":0,"NORAD_CAT_ID":47291,"ELEMENT_SET_NO":999,"REV_AT_EPOCH":26866,"BSTAR":-0.0010262938,"MEAN_MOTION_DOT":-0.00000356,"MEAN_MOTION_DDOT":0},{"OBJECT_NAME":"ONEWEB-0146","OBJECT_ID":"2020-100AL","EPOCH":"2026-07-16T21:56:00.535776","CLASSIFICATION_TYPE":"U","MEAN_MOTION":13.12443961,"ECCENTRICITY":0.0001555,"INCLINATION":87.8972,"RA_OF_ASC_NODE":344.7516,"ARG_OF_PERICENTER":101.819,"MEAN_ANOMALY":258.3113,"EPHEMERIS_TYPE":0,"NORAD_CAT_ID":47292,"ELEMENT_SET_NO":999,"REV_AT_EPOCH":26857,"BSTAR":-0.00027557355,"MEAN_MOTION_DOT":-8.6e-7,"MEAN_MOTION_DDOT":0},{"OBJECT_NAME":"ONEWEB-0147","OBJECT_ID":"2020-100AM","EPOCH":"2026-07-17T08:05:54.386592","CLASSIFICATION_TYPE":"U","MEAN_MOTION":13.12442597,"ECCENTRICITY":0.00020079,"INCLINATION":87.8977,"RA_OF_ASC_NODE":344.6496,"ARG_OF_PERICENTER":94.7297,"MEAN_ANOMALY":265.4061,"EPHEMERIS_TYPE":0,"NORAD_CAT_ID":47293,"ELEMENT_SET_NO":999,"REV_AT_EPOCH":26852,"BSTAR":0.00022430197,"MEAN_MOTION_DOT":9.3e-7,"MEAN_MOTION_DDOT":0},{"OBJECT_NAME":"ONEWEB-0115","OBJECT_ID":"2021-025A","EPOCH":"2026-07-17T06:22:51.782304","CLASSIFICATION_TYPE":"U","MEAN_MOTION":13.13461117,"ECCENTRICITY":0.00018454,"INCLINATION":87.8984,"RA_OF_ASC_NODE":314.2384,"ARG_OF_PERICENTER":102.6386,"MEAN_ANOMALY":257.495,"EPHEMERIS_TYPE":0,"NORAD_CAT_ID":48042,"ELEMENT_SET_NO":999,"REV_AT_EPOCH":25754,"BSTAR":-0.00057668713,"MEAN_MOTION_DOT":-0.00000198,"MEAN_MOTION_DDOT":0},{"OBJECT_NAME":"ONEWEB-0152","OBJECT_ID":"2021-025B","EPOCH":"2026-07-17T06:42:19.981152","CLASSIFICATION_TYPE":"U","MEAN_MOTION":13.13474056,"ECCENTRICITY":0.00018713,"INCLINATION":87.8989,"RA_OF_ASC_NODE":314.2343,"ARG_OF_PERICENTER":102.5378,"MEAN_ANOMALY":257.5961,"EPHEMERIS_TYPE":0,"NORAD_CAT_ID":48043,"ELEMENT_SET_NO":999,"REV_AT_EPOCH":25750,"BSTAR":-0.00065476979,"MEAN_MOTION_DOT":-0.00000226,"MEAN_MOTION_DDOT":0},{"OBJECT_NAME":"ONEWEB-0153","OBJECT_ID":"2021-025C","EPOCH":"2026-07-17T06:10:39.138816","CLASSIFICATION_TYPE":"U","MEAN_MOTION":13.13469407,"ECCENTRICITY":0.00020149,"INCLINATION":87.898,"RA_OF_ASC_NODE":314.2388,"ARG_OF_PERICENTER":99.4224,"MEAN_ANOMALY":260.7133,"EPHEMERIS_TYPE":0,"NORAD_CAT_ID":48044,"ELEMENT_SET_NO":999,"REV_AT_EPOCH":25749,"BSTAR":-0.000040949623,"MEAN_MOTION_DOT":-2e-8,"MEAN_MOTION_DDOT":0},{"OBJECT_NAME":"ONEWEB-0154","OBJECT_ID":"2021-025D","EPOCH":"2026-07-17T06:05:46.778496","CLASSIFICATION_TYPE":"U","MEAN_MOTION":13.13469974,"ECCENTRICITY":0.00019833,"INCLINATION":87.8988,"RA_OF_ASC_NODE":314.2389,"ARG_OF_PERICENTER":104.6536,"MEAN_ANOMALY":255.4814,"EPHEMERIS_TYPE":0,"NORAD_CAT_ID":48045,"ELEMENT_SET_NO":999,"REV_AT_EPOCH":25745,"BSTAR":0.00015194266,"MEAN_MOTION_DOT":6.8e-7,"MEAN_MOTION_DDOT":0}]}
