ONEWEB-0136             
1 47282U 20100AA  26197.92406248  .00000225  00000+0  58956-3 0  9990
2 47282  87.8970 344.7379 0002131 102.2963 257.8405 13.12443689268560
ONEWEB-0137             
1 47283U 20100AB  26197.95793771 -.00000076  00000+0 -24695-3 0  9993
2 47283  87.8977 344.7423 0001799  92.9147 267.2188 13.12442562268478
ONEWEB-0138             
1 47284U 20100AC  26197.93592741  .00000389  00000+0  10460-2 0  9995
2 47284  87.8972 344.7513 0002083  98.9044 261.2320 13.12442541268551
ONEWEB-0139             
1 47285U 20100AD  26197.97672063 -.00000394  00000+0 -11312-2 0  9991
2 47285  87.8973 344.7292 0001924  96.5024 263.6324 13.12442814268634
ONEWEB-0140             
1 47286U 20100AE  26197.93084222  .00000390  00000+0  10484-2 0  9995
2 47286  87.8975 344.7292 0001779 102.0724 258.0604 13.12443410268592
ONEWEB-0141             
1 47287U 20100AF  26197.90019393 -.00000406  00000+0 -11638-2 0  9992
2 47287  87.8973 344.7404 0001853  87.4818 272.6523 13.12443744268579
ONEWEB-0142             
1 47288U 20100AG  26197.96485200 -.00000213  00000+0 -62634-3 0  9992
2 47288  87.8967 344.7474 0002189  88.5712 271.5668 13.12443870268576
ONEWEB-0143             
1 47289U 20100AH  26197.89864110 -.00000431  00000+0 -12335-2 0  9990
2 47289  87.8967 344.7602 0001844  95.4599 264.6740 13.12443345268545
ONEWEB-0144             
1 47290U 20100AJ  26197.94609079  .00000310  00000+0  82643-3 0  9993
2 47290  87.8977 344.7266 0002246  97.5620 262.5764 13.12441922268473
ONEWEB-0145             
1 47291U 20100AK  26197.91728393 -.00000356  00000+0 -10263-2 0  9992
2 47291  87.8963 344.7571 0002119  92.8868 267.2503 13.12445223268661
ONEWEB-0146             
1 47292U 20100AL  26197.91389509 -.00000086  00000+0 -27557-3 0  9990
2 47292  87.8972 344.7516 0001555 101.8190 258.3113 13.12443961268578
ONEWEB-0147             
1 47293U 20100AM  26198.33743503  .00000093  00000+0  22430-3 0  9997
2 47293  87.8977 344.6496 0002007  94.7297 265.4061 13.12442597268521
ONEWEB-0115             
1 48042U 21025A   26198.26587711 -.00000198  00000+0 -57669-3 0  9996
2 48042  87.8984 314.2384 0001845 102.6386 257.4950 13.13461117257546
ONEWEB-0152             
1 48043U 21025B   26198.27939793 -.00000226  00000+0 -65477-3 0  9997
2 48043  87.8989 314.2343 0001871 102.5378 257.5961 13.13474056257501
ONEWEB-0153             
1 48044U 21025C   26198.25739744 -.00000002  00000+0 -40950-4 0  9992
2 48044  87.8980 314.2388 0002014  99.4224 260.7133 13.13469407257495
ONEWEB-0154             
1 48045U 21025D   26198.25401364  .00000068  00000+0  15194-3 0  9998
2 48045  87.8988 314.2389 0001983 104.6536 255.4814 13.13469974257456
